[{"OBJECT_NAME":"SUOMI-100","OBJECT_ID":"2018-099AY","EPOCH":"2026-03-09T16:23:06.300384","MEAN_MOTION":15.25995383,"ECCENTRICITY":0.00089691,"INCLINATION":97.4315,"RA_OF_ASC_NODE":129.5602,"ARG_OF_PERICENTER":269.9465,"MEAN_ANOMALY":90.0745,"EPHEMERIS_TYPE":0,"CLASSIFICATION_TYPE":"U","NORAD_CAT_ID":43804,"ELEMENT_SET_NO":999,"REV_AT_EPOCH":39823,"BSTAR":0.00054773118,"MEAN_MOTION_DOT":0.00014037,"MEAN_MOTION_DDOT":0},{"OBJECT_NAME":"STARLINK-33855","OBJECT_ID":"2025-124U","EPOCH":"2026-03-09T12:03:02.119104","MEAN_MOTION":15.27587961,"ECCENTRICITY":0.00018487,"INCLINATION":43.0009,"RA_OF_ASC_NODE":122.5973,"ARG_OF_PERICENTER":278.4552,"MEAN_ANOMALY":81.609,"EPHEMERIS_TYPE":0,"CLASSIFICATION_TYPE":"U","NORAD_CAT_ID":64335,"ELEMENT_SET_NO":999,"REV_AT_EPOCH":4175,"BSTAR":0.00073988121,"MEAN_MOTION_DOT":0.00020159,"MEAN_MOTION_DDOT":0}]
