SUOMI-100               
1 43804U 18099AY  26068.68271181  .00014037  00000+0  54773-3 0  9995
2 43804  97.4315 129.5602 0008969 269.9465  90.0745 15.25995383398238
STARLINK-33855          
1 64335U 25124U   26068.50210786  .00020159  00000+0  73988-3 0  9990
2 64335  43.0009 122.5973 0001848 278.4552  81.6090 15.27587961 41754
